[{"OBJECT_NAME":"CUBESX-HSE 3 (RS42S)","OBJECT_ID":"2023-091N","EPOCH":"2026-03-09T22:57:25.321248","MEAN_MOTION":15.286147,"ECCENTRICITY":0.00127191,"INCLINATION":97.5203,"RA_OF_ASC_NODE":133.4295,"ARG_OF_PERICENTER":86.5376,"MEAN_ANOMALY":273.7318,"EPHEMERIS_TYPE":0,"CLASSIFICATION_TYPE":"U","NORAD_CAT_ID":57178,"ELEMENT_SET_NO":999,"REV_AT_EPOCH":14925,"BSTAR":0.00059055694,"MEAN_MOTION_DOT":0.00016417,"MEAN_MOTION_DDOT":0},{"OBJECT_NAME":"STARLINK-36115","OBJECT_ID":"2025-286X","EPOCH":"2026-03-09T22:39:56.299968","MEAN_MOTION":15.30194683,"ECCENTRICITY":0.00010504,"INCLINATION":53.1623,"RA_OF_ASC_NODE":357.4163,"ARG_OF_PERICENTER":75.2807,"MEAN_ANOMALY":284.831,"EPHEMERIS_TYPE":0,"CLASSIFICATION_TYPE":"U","NORAD_CAT_ID":66946,"ELEMENT_SET_NO":999,"REV_AT_EPOCH":1545,"BSTAR":0.00083959731,"MEAN_MOTION_DOT":0.00024585,"MEAN_MOTION_DDOT":0}]
